STARLINK-2596
1 28409C 21038BJ  21325.13330789  .00009216  00000-0  61754-3 0  3253
2 28409  53.0528 192.6265 0001770  73.5539  70.9997 15.06386969    13
